GLOBALSTAR M024         
1 25883U 99043A   24165.32466017 -.00000082  00000+0 -61303-3 0  9995
2 25883  51.9986 132.8968 0001352 236.2153 273.6675 11.10156481 73897
GLOBALSTAR M027         
1 25884U 99043B   24165.38592841 -.00000073  00000+0 -36869-3 0  9996
2 25884  52.0176 200.2949 0021208 116.7598 243.5368 11.04368827100491
GLOBALSTAR M054         
1 25885U 99043C   24165.37015066 -.00000072  00000+0 -17524-4 0  9992
2 25885  52.0167  29.5214 0004179 272.8598 258.4998 11.39203399 77016
GLOBALSTAR M053         
1 25886U 99043D   24165.59225944 -.00000051  00000+0  50520-3 0  9993
2 25886  52.0003 315.6358 0003947 166.8530 272.5865 11.27655801 77863
GLOBALSTAR M058         
1 25907U 99049A   24165.54854935 -.00000048  00000+0  49187-3 0  9999
2 25907  51.9966  13.5209 0001633 300.0470  60.0203 11.93182586497531
GLOBALSTAR M050         
1 25908U 99049B   24165.44801256 -.00000079  00000+0  10561-3 0  9995
2 25908  52.0011  49.0126 0009665  20.3067 151.0588 12.07434919103643
GLOBALSTAR M033         
1 25909U 99049C   24165.59173773 -.00000091  00000+0  13277-5 0  9991
2 25909  51.9927 305.9136 0012010 226.0412 133.9445 12.20273430490745
GLOBALSTAR M055         
1 25910U 99049D   24165.47438668 -.00000064  00000+0  25842-3 0  9996
2 25910  52.0039 334.9337 0007874  87.7349 272.4404 12.29402763122930
